start=new Date('2023-04-06T00:00:00.000Z').valueOf();
sats=[{"BSTAR":"0.00236730000000","OBJECT_ID":"2021-018AF","CLASSIFICATION_TYPE":"U","GP_ID":"229535699","REF_FRAME":"TEME","RCS_SIZE":"LARGE","OBJECT_NAME":"STARLINK-2399","LAUNCH_DATE":"2021-03-11","EPOCH":"2023-04-05T06:44:21.825888","ELEMENT_SET_NO":"999","SEMIMAJOR_AXIS":"6925.469","COUNTRY_CODE":"US","MEAN_MOTION":"15.06360789","TLE_LINE2":"2 47816  53.0550  12.3787 0001026  76.8420 283.2683 15.06360789115408","CENTER_NAME":"EARTH","REV_AT_EPOCH":"11540","ECCENTRICITY":"0.00010260","PERIAPSIS":"546.623","DECAY_DATE":null,"TIME_SYSTEM":"UTC","MEAN_MOTION_DOT":"0.00035118","APOAPSIS":"548.044","TLE_LINE1":"1 47816U 21018AF  23095.28080817  .00035118  00000-0  23673-2 0  9992","MEAN_MOTION_DDOT":"0.0000000000000","FILE":"3880853","OBJECT_TYPE":"PAYLOAD","RA_OF_ASC_NODE":"12.3787","EPHEMERIS_TYPE":"0","SITE":"AFETR","INCLINATION":"53.0550","PERIOD":"95.595","ARG_OF_PERICENTER":"76.8420","NORAD_CAT_ID":"47816","MEAN_ELEMENT_THEORY":"SGP4","MEAN_ANOMALY":"283.2683"},{"BSTAR":"0.00083162000000","CLASSIFICATION_TYPE":"U","OBJECT_ID":"2021-018AG","LAUNCH_DATE":"2021-03-11","EPOCH":"2023-04-05T05:35:22.695648","ELEMENT_SET_NO":"999","OBJECT_NAME":"STARLINK-2400","GP_ID":"229535949","RCS_SIZE":"LARGE","REF_FRAME":"TEME","SEMIMAJOR_AXIS":"6925.264","TLE_LINE2":"2 47817  53.0551  12.5978 0001591 128.5433 231.5699 15.06427749115391","MEAN_MOTION":"15.06427749","COUNTRY_CODE":"US","CENTER_NAME":"EARTH","DECAY_DATE":null,"PERIAPSIS":"546.027","ECCENTRICITY":"0.00015910","REV_AT_EPOCH":"11539","TIME_SYSTEM":"UTC","APOAPSIS":"548.230","MEAN_MOTION_DOT":"0.00012136","TLE_LINE1":"1 47817U 21018AG  23095.23290157  .00012136  00000-0  83162-3 0  9993","FILE":"3880853","MEAN_MOTION_DDOT":"0.0000000000000","EPHEMERIS_TYPE":"0","RA_OF_ASC_NODE":"12.5978","OBJECT_TYPE":"PAYLOAD","SITE":"AFETR","MEAN_ANOMALY":"231.5699","NORAD_CAT_ID":"47817","MEAN_ELEMENT_THEORY":"SGP4","ARG_OF_PERICENTER":"128.5433","PERIOD":"95.590","INCLINATION":"53.0551"},{"CLASSIFICATION_TYPE":"U","OBJECT_ID":"2021-018AH","BSTAR":"0.00237330000000","SEMIMAJOR_AXIS":"6925.371","LAUNCH_DATE":"2021-03-11","EPOCH":"2023-04-05T04:37:38.700192","ELEMENT_SET_NO":"999","GP_ID":"229536199","RCS_SIZE":"LARGE","REF_FRAME":"TEME","OBJECT_NAME":"STARLINK-2401","TLE_LINE2":"2 47818  53.0555  17.7647 0001318  75.7323 284.3812 15.06392554115325","COUNTRY_CODE":"US","MEAN_MOTION":"15.06392554","PERIAPSIS":"546.324","DECAY_DATE":null,"REV_AT_EPOCH":"11532","ECCENTRICITY":"0.00013180","CENTER_NAME":"EARTH","MEAN_MOTION_DOT":"0.00035239","APOAPSIS":"548.149","TIME_SYSTEM":"UTC","TLE_LINE1":"1 47818U 21018AH  23095.19280903  .00035239  00000-0  23733-2 0  9993","RA_OF_ASC_NODE":"17.7647","EPHEMERIS_TYPE":"0","OBJECT_TYPE":"PAYLOAD","FILE":"3880853","MEAN_MOTION_DDOT":"0.0000000000000","NORAD_CAT_ID":"47818","MEAN_ELEMENT_THEORY":"SGP4","MEAN_ANOMALY":"284.3812","INCLINATION":"53.0555","PERIOD":"95.593","ARG_OF_PERICENTER":"75.7323","SITE":"AFETR"},{"BSTAR":"0.00202370000000","OBJECT_ID":"2021-018AJ","CLASSIFICATION_TYPE":"U","RCS_SIZE":"LARGE","GP_ID":"229536439","REF_FRAME":"TEME","OBJECT_NAME":"STARLINK-2402","EPOCH":"2023-04-05T04:03:47.201184","LAUNCH_DATE":"2021-03-11","ELEMENT_SET_NO":"999","SEMIMAJOR_AXIS":"6925.207","MEAN_MOTION":"15.06446034","COUNTRY_CODE":"US","TLE_LINE2":"2 47819  53.0558  12.8691 0001186  90.9577 269.1548 15.06446034115451","CENTER_NAME":"EARTH","REV_AT_EPOCH":"11545","ECCENTRICITY":"0.00011860","PERIAPSIS":"546.251","DECAY_DATE":null,"TIME_SYSTEM":"UTC","MEAN_MOTION_DOT":"0.00030028","APOAPSIS":"547.894","TLE_LINE1":"1 47819U 21018AJ  23095.16929631  .00030028  00000-0  20237-2 0  9996","MEAN_MOTION_DDOT":"0.0000000000000","FILE":"3880853","OBJECT_TYPE":"PAYLOAD","RA_OF_ASC_NODE":"12.8691","EPHEMERIS_TYPE":"0","SITE":"AFETR","PERIOD":"95.589","INCLINATION":"53.0558","ARG_OF_PERICENTER":"90.9577","MEAN_ELEMENT_THEORY":"SGP4","NORAD_CAT_ID":"47819","MEAN_ANOMALY":"269.1548"},{"TIME_SYSTEM":"UTC","APOAPSIS":"548.452","MEAN_MOTION_DOT":"0.00029845","TLE_LINE1":"1 47820U 21018AK  23095.15090124  .00029845  00000-0  20151-2 0  9993","FILE":"3880853","MEAN_MOTION_DDOT":"0.0000000000000","EPHEMERIS_TYPE":"0","RA_OF_ASC_NODE":"22.9613","OBJECT_TYPE":"PAYLOAD","SITE":"AFETR","MEAN_ANOMALY":"265.4312","NORAD_CAT_ID":"47820","MEAN_ELEMENT_THEORY":"SGP4","ARG_OF_PERICENTER":"94.6871","INCLINATION":"53.0552","PERIOD":"95.593","BSTAR":"0.00201510000000","CLASSIFICATION_TYPE":"U","OBJECT_ID":"2021-018AK","LAUNCH_DATE":"2021-03-11","ELEMENT_SET_NO":"999","EPOCH":"2023-04-05T03:37:17.867136","OBJECT_NAME":"STARLINK-2403","RCS_SIZE":"LARGE","GP_ID":"229535200","REF_FRAME":"TEME","SEMIMAJOR_AXIS":"6925.410","TLE_LINE2":"2 47820  53.0552  22.9613 0001700  94.6871 265.4312 15.06379955115302","MEAN_MOTION":"15.06379955","COUNTRY_CODE":"US","CENTER_NAME":"EARTH","DECAY_DATE":null,"PERIAPSIS":"546.098","ECCENTRICITY":"0.00017000","REV_AT_EPOCH":"11530"},{"SITE":"AFETR","ARG_OF_PERICENTER":"73.8479","INCLINATION":"53.0557","PERIOD":"95.593","MEAN_ANOMALY":"286.2637","NORAD_CAT_ID":"47821","MEAN_ELEMENT_THEORY":"SGP4","FILE":"3880853","MEAN_MOTION_DDOT":"0.0000000000000","OBJECT_TYPE":"PAYLOAD","EPHEMERIS_TYPE":"0","RA_OF_ASC_NODE":"12.7700","TLE_LINE1":"1 47821U 21018AL  23095.19606360  .00039061  00000-0  26279-2 0  9991","TIME_SYSTEM":"UTC","APOAPSIS":"548.067","MEAN_MOTION_DOT":"0.00039061","CENTER_NAME":"EARTH","ECCENTRICITY":"0.00011590","REV_AT_EPOCH":"11539","DECAY_DATE":null,"PERIAPSIS":"546.462","COUNTRY_CODE":"US","MEAN_MOTION":"15.06383430","TLE_LINE2":"2 47821  53.0557  12.7700 0001159  73.8479 286.2637 15.06383430115396","OBJECT_NAME":"STARLINK-2406","RCS_SIZE":"LARGE","GP_ID":"229535450","REF_FRAME":"TEME","EPOCH":"2023-04-05T04:42:19.895040","LAUNCH_DATE":"2021-03-11","ELEMENT_SET_NO":"999","SEMIMAJOR_AXIS":"6925.399","BSTAR":"0.00262790000000","OBJECT_ID":"2021-018AL","CLASSIFICATION_TYPE":"U"},{"ELEMENT_SET_NO":"999","LAUNCH_DATE":"2021-03-11","EPOCH":"2023-04-05T04:55:30.403200","OBJECT_NAME":"STARLINK-2407","GP_ID":"229543641","RCS_SIZE":"LARGE","REF_FRAME":"TEME","SEMIMAJOR_AXIS":"6925.475","BSTAR":"0.00218190000000","CLASSIFICATION_TYPE":"U","OBJECT_ID":"2021-018AM","CENTER_NAME":"EARTH","DECAY_DATE":null,"PERIAPSIS":"546.421","ECCENTRICITY":"0.00013260","REV_AT_EPOCH":"11492","TLE_LINE2":"2 47822  53.0551  22.7077 0001326  98.0610 262.0530 15.06358853114924","MEAN_MOTION":"15.06358853","COUNTRY_CODE":"US","TLE_LINE1":"1 47822U 21018AM  23095.20521300  .00032331  00000-0  21819-2 0  9992","TIME_SYSTEM":"UTC","APOAPSIS":"548.258","MEAN_MOTION_DOT":"0.00032331","SITE":"AFETR","MEAN_ANOMALY":"262.0530","NORAD_CAT_ID":"47822","MEAN_ELEMENT_THEORY":"SGP4","ARG_OF_PERICENTER":"98.0610","PERIOD":"95.595","INCLINATION":"53.0551","MEAN_MOTION_DDOT":"0.0000000000000","FILE":"3880973","EPHEMERIS_TYPE":"0","RA_OF_ASC_NODE":"22.7077","OBJECT_TYPE":"PAYLOAD"},{"COUNTRY_CODE":"US","MEAN_MOTION":"15.06386658","TLE_LINE2":"2 47823  53.0545  12.6386 0001334  81.5692 278.5449 15.06386658115404","CENTER_NAME":"EARTH","REV_AT_EPOCH":"11540","ECCENTRICITY":"0.00013340","PERIAPSIS":"546.331","DECAY_DATE":null,"BSTAR":"0.00232100000000","OBJECT_ID":"2021-018AN","CLASSIFICATION_TYPE":"U","GP_ID":"229536939","REF_FRAME":"TEME","RCS_SIZE":"LARGE","OBJECT_NAME":"STARLINK-2408","ELEMENT_SET_NO":"999","LAUNCH_DATE":"2021-03-11","EPOCH":"2023-04-05T05:18:07.350624","SEMIMAJOR_AXIS":"6925.389","MEAN_MOTION_DDOT":"0.0000000000000","FILE":"3880853","OBJECT_TYPE":"PAYLOAD","RA_OF_ASC_NODE":"12.6386","EPHEMERIS_TYPE":"0","SITE":"AFETR","INCLINATION":"53.0545","PERIOD":"95.593","ARG_OF_PERICENTER":"81.5692","NORAD_CAT_ID":"47823","MEAN_ELEMENT_THEORY":"SGP4","MEAN_ANOMALY":"278.5449","TIME_SYSTEM":"UTC","MEAN_MOTION_DOT":"0.00034447","APOAPSIS":"548.178","TLE_LINE1":"1 47823U 21018AN  23095.22091841  .00034447  00000-0  23210-2 0  9994"},{"PERIAPSIS":"546.823","DECAY_DATE":null,"REV_AT_EPOCH":"11540","ECCENTRICITY":"0.00006490","CENTER_NAME":"EARTH","TLE_LINE2":"2 47824  53.0551  12.3960 0000649  64.7007 295.4050 15.06380801115408","MEAN_MOTION":"15.06380801","COUNTRY_CODE":"US","SEMIMAJOR_AXIS":"6925.407","ELEMENT_SET_NO":"999","LAUNCH_DATE":"2021-03-11","EPOCH":"2023-04-05T06:39:05.252832","REF_FRAME":"TEME","GP_ID":"229535700","RCS_SIZE":"LARGE","OBJECT_NAME":"STARLINK-2409","CLASSIFICATION_TYPE":"U","OBJECT_ID":"2021-018AP","BSTAR":"0.00245350000000","NORAD_CAT_ID":"47824","MEAN_ELEMENT_THEORY":"SGP4","MEAN_ANOMALY":"295.4050","INCLINATION":"53.0551","PERIOD":"95.593","ARG_OF_PERICENTER":"64.7007","SITE":"AFETR","RA_OF_ASC_NODE":"12.3960","EPHEMERIS_TYPE":"0","OBJECT_TYPE":"PAYLOAD","MEAN_MOTION_DDOT":"0.0000000000000","FILE":"3880853","TLE_LINE1":"1 47824U 21018AP  23095.27714413  .00036434  00000-0  24535-2 0  9996","MEAN_MOTION_DOT":"0.00036434","APOAPSIS":"547.722","TIME_SYSTEM":"UTC"},{"TLE_LINE1":"1 47825U 21018AQ  23095.22921891  .00015760  00000-0  10752-2 0  9997","MEAN_MOTION_DOT":"0.00015760","APOAPSIS":"548.171","TIME_SYSTEM":"UTC","MEAN_ELEMENT_THEORY":"SGP4","NORAD_CAT_ID":"47825","MEAN_ANOMALY":"252.8078","INCLINATION":"53.0549","PERIOD":"95.594","ARG_OF_PERICENTER":"107.3052","SITE":"AFETR","RA_OF_ASC_NODE":"12.6120","EPHEMERIS_TYPE":"0","OBJECT_TYPE":"PAYLOAD","MEAN_MOTION_DDOT":"0.0000000000000","FILE":"3880853","SEMIMAJOR_AXIS":"6925.414","LAUNCH_DATE":"2021-03-11","ELEMENT_SET_NO":"999","EPOCH":"2023-04-05T05:30:04.513824","RCS_SIZE":"LARGE","GP_ID":"229535950","REF_FRAME":"TEME","OBJECT_NAME":"STARLINK-2410","CLASSIFICATION_TYPE":"U","OBJECT_ID":"2021-018AQ","BSTAR":"0.00107520000000","PERIAPSIS":"546.388","DECAY_DATE":null,"REV_AT_EPOCH":"11540","ECCENTRICITY":"0.00012870","CENTER_NAME":"EARTH","TLE_LINE2":"2 47825  53.0549  12.6120 0001287 107.3052 252.8078 15.06378523115405","COUNTRY_CODE":"US","MEAN_MOTION":"15.06378523"}];
